[{"OBJECT_NAME":"OBJECT AD","OBJECT_ID":"2023-085AD","EPOCH":"2026-03-09T21:41:29.115744","MEAN_MOTION":15.31779154,"ECCENTRICITY":0.00101154,"INCLINATION":97.4841,"RA_OF_ASC_NODE":180.2223,"ARG_OF_PERICENTER":77.5993,"MEAN_ANOMALY":282.638,"EPHEMERIS_TYPE":0,"CLASSIFICATION_TYPE":"U","NORAD_CAT_ID":57031,"ELEMENT_SET_NO":999,"REV_AT_EPOCH":15156,"BSTAR":0.00068352515,"MEAN_MOTION_DOT":0.00020961,"MEAN_MOTION_DDOT":0},{"OBJECT_NAME":"STARLINK-31344","OBJECT_ID":"2024-044V","EPOCH":"2026-03-09T04:11:14.894016","MEAN_MOTION":15.27545255,"ECCENTRICITY":0.00011195,"INCLINATION":43.0007,"RA_OF_ASC_NODE":110.1981,"ARG_OF_PERICENTER":183.9546,"MEAN_ANOMALY":176.1297,"EPHEMERIS_TYPE":0,"CLASSIFICATION_TYPE":"U","NORAD_CAT_ID":59171,"ELEMENT_SET_NO":999,"REV_AT_EPOCH":11351,"BSTAR":0.00017849701,"MEAN_MOTION_DOT":4.648e-5,"MEAN_MOTION_DDOT":0}]
